{
  "type": "FeatureCollection",
  "features": [
    {
      "type": "Feature",
      "properties": {
        "norad_id": 37238,
        "name": "INTELSAT 17 (IS-17)",
        "group": "intelsat",
        "lat": -0.0007221966427717163,
        "lon": -141.13015606518138,
        "alt_km": 35781.301140068754,
        "timestamp": "2025-12-25T03:55:55.974941+00:00",
        "meta_object_name": "INTELSAT 17 (IS-17)",
        "meta_object_id": "2010-065B",
        "meta_epoch": "2025-12-24T20:06:15.432768",
        "meta_mean_motion": 1.00271392,
        "meta_eccentricity": 0.000266,
        "meta_inclination": 0.0109,
        "meta_ra_of_asc_node": 111.598,
        "meta_arg_of_pericenter": 171.6759,
        "meta_mean_anomaly": 177.8901,
        "meta_ephemeris_type": 0,
        "meta_classification_type": "U",
        "meta_norad_cat_id": 37238,
        "meta_element_set_no": 999,
        "meta_rev_at_epoch": 5150,
        "meta_bstar": 0,
        "meta_mean_motion_dot": 2e-07,
        "meta_mean_motion_ddot": 0,
        "tle_line1": "1 37238U 10065B   25358.83767862  .00000020  00000+0  00000+0 0  9995",
        "tle_line2": "2 37238   0.0109 111.5980 0002660 171.6759 177.8901  1.00271392 51509"
      },
      "geometry": {
        "type": "Point",
        "coordinates": [
          -141.13015606518138,
          -0.0007221966427717163
        ]
      }
    },
    {
      "type": "Feature",
      "properties": {
        "norad_id": 37392,
        "name": "INTELSAT 28 (IS-28)",
        "group": "intelsat",
        "lat": 0.8212014088475574,
        "lon": 121.17202143749368,
        "alt_km": 35799.667287157965,
        "timestamp": "2025-12-25T03:55:55.974953+00:00",
        "meta_object_name": "INTELSAT 28 (IS-28)",
        "meta_object_id": "2011-016A",
        "meta_epoch": "2025-12-24T16:22:07.284864",
        "meta_mean_motion": 1.00272162,
        "meta_eccentricity": 0.0003722,
        "meta_inclination": 1.3536,
        "meta_ra_of_asc_node": 84.927,
        "meta_arg_of_pericenter": 187.0131,
        "meta_mean_anomaly": 35.3378,
        "meta_ephemeris_type": 0,
        "meta_classification_type": "U",
        "meta_norad_cat_id": 37392,
        "meta_element_set_no": 999,
        "meta_rev_at_epoch": 5153,
        "meta_bstar": 0,
        "meta_mean_motion_dot": -2.04e-06,
        "meta_mean_motion_ddot": 0,
        "tle_line1": "1 37392U 11016A   25358.68202876 -.00000204  00000+0  00000+0 0  9990",
        "tle_line2": "2 37392   1.3536  84.9270 0003722 187.0131  35.3378  1.00272162 51533"
      },
      "geometry": {
        "type": "Point",
        "coordinates": [
          121.17202143749368,
          0.8212014088475574
        ]
      }
    },
    {
      "type": "Feature",
      "properties": {
        "norad_id": 37834,
        "name": "INTELSAT 18 (IS-18)",
        "group": "intelsat",
        "lat": 0.0022706514785477212,
        "lon": -27.083912898698514,
        "alt_km": 35780.49132766256,
        "timestamp": "2025-12-25T03:55:55.974966+00:00",
        "meta_object_name": "INTELSAT 18 (IS-18)",
        "meta_object_id": "2011-056A",
        "meta_epoch": "2025-12-24T17:22:46.477056",
        "meta_mean_motion": 1.00271639,
        "meta_eccentricity": 0.0001841,
        "meta_inclination": 0.0221,
        "meta_ra_of_asc_node": 289.1837,
        "meta_arg_of_pericenter": 359.7616,
        "meta_mean_anomaly": 245.2398,
        "meta_ephemeris_type": 0,
        "meta_classification_type": "U",
        "meta_norad_cat_id": 37834,
        "meta_element_set_no": 999,
        "meta_rev_at_epoch": 5206,
        "meta_bstar": 0,
        "meta_mean_motion_dot": 7.4e-07,
        "meta_mean_motion_ddot": 0,
        "tle_line1": "1 37834U 11056A   25358.72414904  .00000074  00000+0  00000+0 0  9991",
        "tle_line2": "2 37834   0.0221 289.1837 0001841 359.7616 245.2398  1.00271639 52066"
      },
      "geometry": {
        "type": "Point",
        "coordinates": [
          -27.083912898698514,
          0.0022706514785477212
        ]
      }
    },
    {
      "type": "Feature",
      "properties": {
        "norad_id": 38098,
        "name": "INTELSAT 22 (IS-22)",
        "group": "intelsat",
        "lat": -0.007499218748724957,
        "lon": -135.03179024134818,
        "alt_km": 35783.90700152374,
        "timestamp": "2025-12-25T03:55:55.974978+00:00",
        "meta_object_name": "INTELSAT 22 (IS-22)",
        "meta_object_id": "2012-011A",
        "meta_epoch": "2025-12-24T20:06:58.008096",
        "meta_mean_motion": 1.00270499,
        "meta_eccentricity": 0.0001937,
        "meta_inclination": 0.0288,
        "meta_ra_of_asc_node": 46.279,
        "meta_arg_of_pericenter": 250.8444,
        "meta_mean_anomaly": 170.3115,
        "meta_ephemeris_type": 0,
        "meta_classification_type": "U",
        "meta_norad_cat_id": 38098,
        "meta_element_set_no": 999,
        "meta_rev_at_epoch": 544,
        "meta_bstar": 0,
        "meta_mean_motion_dot": 0,
        "meta_mean_motion_ddot": 0,
        "tle_line1": "1 38098U 12011A   25358.83817139  .00000000  00000+0  00000+0 0  9994",
        "tle_line2": "2 38098   0.0288  46.2790 0001937 250.8444 170.3115  1.00270499  5446"
      },
      "geometry": {
        "type": "Point",
        "coordinates": [
          -135.03179024134818,
          -0.007499218748724957
        ]
      }
    },
    {
      "type": "Feature",
      "properties": {
        "norad_id": 38356,
        "name": "INTELSAT 19 (IS-19)",
        "group": "intelsat",
        "lat": -0.012624713164300473,
        "lon": -41.06349934205658,
        "alt_km": 35777.76287513788,
        "timestamp": "2025-12-25T03:55:55.974990+00:00",
        "meta_object_name": "INTELSAT 19 (IS-19)",
        "meta_object_id": "2012-030A",
        "meta_epoch": "2025-12-24T17:18:46.858752",
        "meta_mean_motion": 1.00272076,
        "meta_eccentricity": 0.0002928,
        "meta_inclination": 0.0129,
        "meta_ra_of_asc_node": 327.1518,
        "meta_arg_of_pericenter": 303.33,
        "meta_mean_anomaly": 248.7115,
        "meta_ephemeris_type": 0,
        "meta_classification_type": "U",
        "meta_norad_cat_id": 38356,
        "meta_element_set_no": 999,
        "meta_rev_at_epoch": 4870,
        "meta_bstar": 0,
        "meta_mean_motion_dot": -3.5e-07,
        "meta_mean_motion_ddot": 0,
        "tle_line1": "1 38356U 12030A   25358.72137568 -.00000035  00000+0  00000+0 0  9990",
        "tle_line2": "2 38356   0.0129 327.1518 0002928 303.3300 248.7115  1.00272076 48701"
      },
      "geometry": {
        "type": "Point",
        "coordinates": [
          -41.06349934205658,
          -0.012624713164300473
        ]
      }
    },
    {
      "type": "Feature",
      "properties": {
        "norad_id": 38740,
        "name": "INTELSAT 20 (IS-20)",
        "group": "intelsat",
        "lat": -0.0014145500823546197,
        "lon": -138.5831281289395,
        "alt_km": 35777.05909949184,
        "timestamp": "2025-12-25T03:55:55.975002+00:00",
        "meta_object_name": "INTELSAT 20 (IS-20)",
        "meta_object_id": "2012-043A",
        "meta_epoch": "2025-12-24T04:51:59.956992",
        "meta_mean_motion": 1.00271701,
        "meta_eccentricity": 0.00027221,
        "meta_inclination": 0.0113,
        "meta_ra_of_asc_node": 58.3844,
        "meta_arg_of_pericenter": 125.0984,
        "meta_mean_anomaly": 50.9907,
        "meta_ephemeris_type": 0,
        "meta_classification_type": "U",
        "meta_norad_cat_id": 38740,
        "meta_element_set_no": 999,
        "meta_rev_at_epoch": 4899,
        "meta_bstar": 0,
        "meta_mean_motion_dot": -3e-08,
        "meta_mean_motion_ddot": 0,
        "tle_line1": "1 38740U 12043A   25358.20277728 -.00000003  00000+0  00000+0 0  9992",
        "tle_line2": "2 38740   0.0113  58.3844 0002722 125.0984  50.9907  1.00271701 48992"
      },
      "geometry": {
        "type": "Point",
        "coordinates": [
          -138.5831281289395,
          -0.0014145500823546197
        ]
      }
    },
    {
      "type": "Feature",
      "properties": {
        "norad_id": 38749,
        "name": "INTELSAT 21 (IS-21)",
        "group": "intelsat",
        "lat": 0.018943174283695758,
        "lon": 94.91419783454549,
        "alt_km": 35792.82244505093,
        "timestamp": "2025-12-25T03:55:55.975014+00:00",
        "meta_object_name": "INTELSAT 21 (IS-21)",
        "meta_object_id": "2012-045A",
        "meta_epoch": "2025-12-24T12:49:27.649056",
        "meta_mean_motion": 1.00272859,
        "meta_eccentricity": 0.0001679,
        "meta_inclination": 0.0128,
        "meta_ra_of_asc_node": 307.9122,
        "meta_arg_of_pericenter": 315.6642,
        "meta_mean_anomaly": 324.1074,
        "meta_ephemeris_type": 0,
        "meta_classification_type": "U",
        "meta_norad_cat_id": 38749,
        "meta_element_set_no": 999,
        "meta_rev_at_epoch": 4877,
        "meta_bstar": 0,
        "meta_mean_motion_dot": -2.64e-06,
        "meta_mean_motion_ddot": 0,
        "tle_line1": "1 38749U 12045A   25358.53434779 -.00000264  00000+0  00000+0 0  9999",
        "tle_line2": "2 38749   0.0128 307.9122 0001679 315.6642 324.1074  1.00272859 48779"
      },
      "geometry": {
        "type": "Point",
        "coordinates": [
          94.91419783454549,
          0.018943174283695758
        ]
      }
    }
  ]
}